ONEWEB-0228             
1 48780U 21045P   24120.85821865  .00000051  00000+0  10071-3 0  9998
2 48780  87.9039  54.0632 0001833  82.3384 277.7954 13.15549505141991
